#aV2021  8 25  0  0  0.00000000     288 DD+AD WGS84 FIT  NGA
## 2172 259200.00000000   300.00000000 59451 0.0000000000000
+   32     1  2  3  4  5  6  7  8  9 10 11 12 13 14 15 16 17
+         18 19 20 21 22 23 24 25 26 27 28 29 30 31 32  0  0
+          0  0  0  0  0  0  0  0  0  0  0  0  0  0  0  0  0
+          0  0  0  0  0  0  0  0  0  0  0  0  0  0  0  0  0
+          0  0  0  0  0  0  0  0  0  0  0  0  0  0  0  0  0
++         2  2  2  2  2  2  2  2  2  2  2  2  2  2  2  2  2
++         2  2  2  2  2  2  2  2  2  2  2  2  2  2  2  0  0
++         0  0  0  0  0  0  0  0  0  0  0  0  0  0  0  0  0
++         0  0  0  0  0  0  0  0  0  0  0  0  0  0  0  0  0
++         0  0  0  0  0  0  0  0  0  0  0  0  0  0  0  0  0
%c cc cc ccc ccc cccc cccc cccc cccc ccccc ccccc ccccc ccccc
%c cc cc ccc ccc cccc cccc cccc cccc ccccc ccccc ccccc ccccc
%f  0.0000000  0.000000000  0.00000000000  0.000000000000000
%f  0.0000000  0.000000000  0.00000000000  0.000000000000000
%i    0    0    0    0      0      0      0      0         0
%i    0    0    0    0      0      0      0      0         0
/*      NGA, ST. LOUIS,MO.                                  
/*   EPHEMERIS COMPUTED FROM 2 DAYS OF DATA                 
/*   EPOCHA v7 SMOOTHER                                     
/*   G2139 IERS2010 SATIGS SATAPC                           
*  2021  8 25 19 15  0.00000000
P  1 -11496.284179  20967.037795 -11460.859228    586.946397                    
V  1 -11752.517550   8231.274665  27828.798998     -0.112400                    
P  2  20864.597204 -12669.191175  -9902.762530   -628.517299                    
V  2  -7220.669100  11687.584633 -28247.058380     -0.022776                    
P  3  -5102.842325  14178.580362 -21971.849795   -266.681104                    
V  3 -26424.955174  -8057.554194   1045.143870     -0.131057                    
P  4  -1738.835191  24733.297421  -9428.952308   -204.151434                    
V  4  -4903.325527 -11254.306935 -28663.947353     -0.002254                    
P  5  17944.273923  -8217.147510  17686.061725    -52.276222                    
V  5  21597.136419   7292.531399 -18191.528395     -0.012410                    
P  6  18572.977519   -174.808517 -18949.825627     62.309049                    
V  6 -16855.362828  17262.497340 -16573.824308      0.067391                    
P  7   2973.130563  17070.305546  20366.340562    232.380838                    
V  7 -19346.941160  16222.557399 -11464.152475      0.076359                    
P  8  -8386.833104  17430.270926  18048.614302    -33.996648                    
V  8  -7326.428385 -21910.107645  18045.032957     -0.014445                    
P  9   7501.779224  25425.064090   1373.675878   -359.681076                    
V  9  -2506.904721   2524.432837 -31556.092708     -0.008763                    
P 10 -22853.232688 -11895.994583   7150.152147   -189.812689                    
V 10   9088.343524    467.792367  30050.283953     -0.077531                    
P 11  22540.001297  -9179.893471 -10641.949989     38.198358                    
V 11  -8742.965646  10575.737888 -27688.955402      0.034688                    
P 12   6432.975997 -13671.160476 -22090.190630    -88.017991                    
V 12  25574.350926   9882.797505   1475.959497     -0.054034                    
P 13  13268.278116  -9811.590261  20638.604917    176.318763                    
V 13   3568.195183  26313.609023  10289.539749      0.052646                    
P 14  22448.223655  12669.069056   6511.976747     15.735064                    
V 14  -8729.254150    -62.919926  30151.535446     -0.084449                    
P 15   6696.429595 -18719.621322  17065.670232   -125.812883                    
V 15  10175.243284  20389.014290  18316.755137      0.027009                    
P 16 -22225.801872   1756.346796  14529.643220   -379.669603                    
V 16 -16732.642582  -8447.724051 -23720.041030     -0.062914                    
P 17  12493.903524  18748.437838 -13629.051686    494.850472                    
V 17   1282.467583  18045.613173  25216.187944      0.058095                    
P 18  -4289.053051 -15603.338133  21030.683460    329.325168                    
V 18  20326.615149 -17374.651337  -8824.658366     -0.037731                    
P 19  14760.187326  10160.907113 -19931.641532     44.339581                    
V 19   2284.039700  24514.449446  14238.514473      0.049478                    
P 20  24982.552069  -2487.008704   8219.866197    519.468395                    
V 20   9988.401812   4922.360357 -29022.146575     -0.002030                    
P 21 -16551.163860  20221.278221  -1967.799536    139.215600                    
V 21  -4798.228968    196.283523  31915.057300      0.020677                    
P 22 -12854.579164  12201.923595 -19548.278616   -529.374058                    
V 22 -24608.405166  -6288.962349  12348.424352      0.093600                    
P 23 -14048.058742 -15536.062801  16348.052753     66.055400                    
V 23  20499.332932   3749.909690  21080.489538     -0.050124                    
P 24  13562.469302 -21747.914894  -6365.718258    218.390769                    
V 24   8108.119191  -3256.293631  29993.850935      0.102826                    
P 25  -5824.243714 -16548.570541 -20279.636319    197.276423                    
V 25  24320.557211   6270.982394 -11997.453369      0.064210                    
P 26 -26185.346877  -3959.319740   3424.278582    126.787568                    
V 26  -3493.838144  -4155.545517 -30720.669101      0.043402                    
P 27 -13418.320841   6922.941758  21636.251711   -183.556483                    
V 27  -6936.065046 -27029.791604   4666.994022     -0.055123                    
P 28  24273.550471  10508.933586    906.591113    513.305526                    
V 28  -1452.514974   2260.503766  32093.294846     -0.070045                    
P 29  -3736.960219 -26251.667237   -704.375660   -401.751339                    
V 29   2250.327458    487.478188 -32280.413433     -0.057883                    
P 30  13803.107198   8501.695129  21136.949122   -466.061138                    
V 30 -19540.892804  18260.053578   5196.570629     -0.040310                    
P 31 -20228.763204   1563.949966 -17469.114533   -136.234722                    
V 31  15260.108259 -15697.611554 -18715.767555     -0.020787                    
P 32 -15099.848108 -15146.106036 -15746.411560      4.999785                    
V 32  -2911.835587 -20022.655293  21718.991524     -0.029690                    
EOF
